<?xml version="1.0" encoding="UTF-8"?>
<osm version="0.6" generator="openstreetmap-cgimap 2.1.0 (862525 spike-07.openstreetmap.org)" copyright="OpenStreetMap and contributors" attribution="http://www.openstreetmap.org/copyright" license="http://opendatacommons.org/licenses/odbl/1-0/">
 <node id="10910651849" visible="true" version="2" changeset="153644979" timestamp="2024-07-07T02:17:31Z" user="CAM-Gerlach" uid="21392280" lat="37.2314068" lon="-80.4274672"/>
 <node id="10910651850" visible="true" version="2" changeset="153644979" timestamp="2024-07-07T02:17:31Z" user="CAM-Gerlach" uid="21392280" lat="37.2312824" lon="-80.4273153"/>
 <node id="10910651851" visible="true" version="2" changeset="153644979" timestamp="2024-07-07T02:17:31Z" user="CAM-Gerlach" uid="21392280" lat="37.2313117" lon="-80.4272775"/>
 <node id="10910651852" visible="true" version="2" changeset="153644979" timestamp="2024-07-07T02:17:31Z" user="CAM-Gerlach" uid="21392280" lat="37.2313039" lon="-80.4272680"/>
 <node id="10910651853" visible="true" version="2" changeset="153644979" timestamp="2024-07-07T02:17:31Z" user="CAM-Gerlach" uid="21392280" lat="37.2313444" lon="-80.4272157"/>
 <node id="10910651854" visible="true" version="2" changeset="153644979" timestamp="2024-07-07T02:17:31Z" user="CAM-Gerlach" uid="21392280" lat="37.2313517" lon="-80.4272246"/>
 <node id="10910651855" visible="true" version="2" changeset="153644979" timestamp="2024-07-07T02:17:31Z" user="CAM-Gerlach" uid="21392280" lat="37.2313748" lon="-80.4271947"/>
 <node id="10910651856" visible="true" version="2" changeset="153644979" timestamp="2024-07-07T02:17:31Z" user="CAM-Gerlach" uid="21392280" lat="37.2313867" lon="-80.4272092"/>
 <node id="10910651857" visible="true" version="2" changeset="153644979" timestamp="2024-07-07T02:17:31Z" user="CAM-Gerlach" uid="21392280" lat="37.2315582" lon="-80.4269876"/>
 <node id="10910651858" visible="true" version="2" changeset="153644979" timestamp="2024-07-07T02:17:31Z" user="CAM-Gerlach" uid="21392280" lat="37.2315540" lon="-80.4269826"/>
 <node id="10910651859" visible="true" version="2" changeset="153644979" timestamp="2024-07-07T02:17:31Z" user="CAM-Gerlach" uid="21392280" lat="37.2316016" lon="-80.4269211"/>
 <node id="10910651860" visible="true" version="2" changeset="153644979" timestamp="2024-07-07T02:17:31Z" user="CAM-Gerlach" uid="21392280" lat="37.2316847" lon="-80.4270226"/>
 <node id="10910651861" visible="true" version="2" changeset="153644979" timestamp="2024-07-07T02:17:31Z" user="CAM-Gerlach" uid="21392280" lat="37.2316968" lon="-80.4270069"/>
 <node id="10910651862" visible="true" version="2" changeset="153644979" timestamp="2024-07-07T02:17:31Z" user="CAM-Gerlach" uid="21392280" lat="37.2317486" lon="-80.4270701"/>
 <node id="10910651863" visible="true" version="2" changeset="153644979" timestamp="2024-07-07T02:17:31Z" user="CAM-Gerlach" uid="21392280" lat="37.2317365" lon="-80.4270857"/>
 <node id="10910651864" visible="true" version="2" changeset="153644979" timestamp="2024-07-07T02:17:31Z" user="CAM-Gerlach" uid="21392280" lat="37.2317447" lon="-80.4270956"/>
 <node id="10910651865" visible="true" version="2" changeset="153644979" timestamp="2024-07-07T02:17:31Z" user="CAM-Gerlach" uid="21392280" lat="37.2316951" lon="-80.4271596"/>
 <node id="10910651869" visible="true" version="2" changeset="153644979" timestamp="2024-07-07T02:17:31Z" user="CAM-Gerlach" uid="21392280" lat="37.2316820" lon="-80.4271436"/>
 <node id="10910651870" visible="true" version="2" changeset="153644979" timestamp="2024-07-07T02:17:31Z" user="CAM-Gerlach" uid="21392280" lat="37.2315573" lon="-80.4273047"/>
 <node id="10910651871" visible="true" version="2" changeset="153644979" timestamp="2024-07-07T02:17:31Z" user="CAM-Gerlach" uid="21392280" lat="37.2316038" lon="-80.4273616"/>
 <node id="10910651872" visible="true" version="2" changeset="153644979" timestamp="2024-07-07T02:17:31Z" user="CAM-Gerlach" uid="21392280" lat="37.2316136" lon="-80.4273489"/>
 <node id="10910651873" visible="true" version="2" changeset="153644979" timestamp="2024-07-07T02:17:31Z" user="CAM-Gerlach" uid="21392280" lat="37.2316337" lon="-80.4273734"/>
 <node id="10910651874" visible="true" version="2" changeset="153644979" timestamp="2024-07-07T02:17:31Z" user="CAM-Gerlach" uid="21392280" lat="37.2316238" lon="-80.4273863"/>
 <node id="10910651875" visible="true" version="2" changeset="153644979" timestamp="2024-07-07T02:17:31Z" user="CAM-Gerlach" uid="21392280" lat="37.2316731" lon="-80.4274466"/>
 <node id="10910651876" visible="true" version="2" changeset="153644979" timestamp="2024-07-07T02:17:31Z" user="CAM-Gerlach" uid="21392280" lat="37.2318109" lon="-80.4272687"/>
 <node id="10910651877" visible="true" version="2" changeset="153644979" timestamp="2024-07-07T02:17:31Z" user="CAM-Gerlach" uid="21392280" lat="37.2318040" lon="-80.4272603"/>
 <node id="10910651880" visible="true" version="2" changeset="153644979" timestamp="2024-07-07T02:17:31Z" user="CAM-Gerlach" uid="21392280" lat="37.2318552" lon="-80.4271943"/>
 <node id="10910651881" visible="true" version="2" changeset="153644979" timestamp="2024-07-07T02:17:31Z" user="CAM-Gerlach" uid="21392280" lat="37.2319091" lon="-80.4272602"/>
 <node id="10910651882" visible="true" version="2" changeset="153644979" timestamp="2024-07-07T02:17:31Z" user="CAM-Gerlach" uid="21392280" lat="37.2318964" lon="-80.4272766"/>
 <node id="10910651883" visible="true" version="2" changeset="153644979" timestamp="2024-07-07T02:17:31Z" user="CAM-Gerlach" uid="21392280" lat="37.2319766" lon="-80.4273745"/>
 <node id="10910651884" visible="true" version="2" changeset="153644979" timestamp="2024-07-07T02:17:31Z" user="CAM-Gerlach" uid="21392280" lat="37.2319295" lon="-80.4274354"/>
 <node id="10910651885" visible="true" version="2" changeset="153644979" timestamp="2024-07-07T02:17:31Z" user="CAM-Gerlach" uid="21392280" lat="37.2319268" lon="-80.4274321"/>
 <node id="10910651886" visible="true" version="2" changeset="153644979" timestamp="2024-07-07T02:17:31Z" user="CAM-Gerlach" uid="21392280" lat="37.2317562" lon="-80.4276526"/>
 <node id="10910651887" visible="true" version="2" changeset="153644979" timestamp="2024-07-07T02:17:31Z" user="CAM-Gerlach" uid="21392280" lat="37.2317675" lon="-80.4276664"/>
 <node id="10910651888" visible="true" version="2" changeset="153644979" timestamp="2024-07-07T02:17:31Z" user="CAM-Gerlach" uid="21392280" lat="37.2317437" lon="-80.4276971"/>
 <node id="10910651889" visible="true" version="2" changeset="153644979" timestamp="2024-07-07T02:17:31Z" user="CAM-Gerlach" uid="21392280" lat="37.2317553" lon="-80.4277113"/>
 <node id="10910651891" visible="true" version="2" changeset="153644979" timestamp="2024-07-07T02:17:31Z" user="CAM-Gerlach" uid="21392280" lat="37.2316824" lon="-80.4278055"/>
 <node id="10910651893" visible="true" version="2" changeset="153644979" timestamp="2024-07-07T02:17:31Z" user="CAM-Gerlach" uid="21392280" lat="37.2316061" lon="-80.4277122"/>
 <node id="10910651894" visible="true" version="2" changeset="153644979" timestamp="2024-07-07T02:17:31Z" user="CAM-Gerlach" uid="21392280" lat="37.2315511" lon="-80.4277832"/>
 <node id="10910651895" visible="true" version="2" changeset="153644979" timestamp="2024-07-07T02:17:31Z" user="CAM-Gerlach" uid="21392280" lat="37.2314833" lon="-80.4277003"/>
 <node id="10910651896" visible="true" version="2" changeset="153644979" timestamp="2024-07-07T02:17:31Z" user="CAM-Gerlach" uid="21392280" lat="37.2312835" lon="-80.4279583"/>
 <node id="10910651897" visible="true" version="2" changeset="153644979" timestamp="2024-07-07T02:17:31Z" user="CAM-Gerlach" uid="21392280" lat="37.2311576" lon="-80.4278046"/>
 <node id="10910651898" visible="true" version="2" changeset="153644979" timestamp="2024-07-07T02:17:31Z" user="CAM-Gerlach" uid="21392280" lat="37.2313725" lon="-80.4275270"/>
 <node id="10910651899" visible="true" version="2" changeset="153644979" timestamp="2024-07-07T02:17:31Z" user="CAM-Gerlach" uid="21392280" lat="37.2313664" lon="-80.4275195"/>
 <node id="12206940081" visible="true" version="2" changeset="184826411" timestamp="2026-06-30T01:03:32Z" user="Jakesname" uid="12481081" lat="37.2317316" lon="-80.4271125">
  <tag k="entrance" v="yes"/>
 </node>
 <node id="12206940083" visible="true" version="2" changeset="184826411" timestamp="2026-06-30T01:03:32Z" user="Jakesname" uid="12481081" lat="37.2318292" lon="-80.4272278">
  <tag k="entrance" v="yes"/>
 </node>
 <node id="12206940090" visible="true" version="1" changeset="157211506" timestamp="2024-09-28T13:41:35Z" user="Jakesname" uid="12481081" lat="37.2316218" lon="-80.4273588">
  <tag k="entrance" v="yes"/>
 </node>
 <node id="12206975911" visible="true" version="1" changeset="157211506" timestamp="2024-09-28T13:41:35Z" user="Jakesname" uid="12481081" lat="37.2313541" lon="-80.4278672">
  <tag k="entrance" v="yes"/>
 </node>
 <node id="12206975912" visible="true" version="1" changeset="157211506" timestamp="2024-09-28T13:41:35Z" user="Jakesname" uid="12481081" lat="37.2314298" lon="-80.4277694">
  <tag k="entrance" v="yes"/>
 </node>
 <node id="12206975934" visible="true" version="1" changeset="157211506" timestamp="2024-09-28T13:41:35Z" user="Jakesname" uid="12481081" lat="37.2315254" lon="-80.4277518">
  <tag k="entrance" v="yes"/>
 </node>
 <node id="13976342682" visible="true" version="1" changeset="184826411" timestamp="2026-06-30T01:03:32Z" user="Jakesname" uid="12481081" lat="37.2313791" lon="-80.4275031">
  <tag k="entrance" v="yes"/>
 </node>
 <node id="13984435302" visible="true" version="1" changeset="185010748" timestamp="2026-07-03T01:15:53Z" user="Jakesname" uid="12481081" lat="37.2313309" lon="-80.4278971"/>
 <node id="13984435335" visible="true" version="1" changeset="185010748" timestamp="2026-07-03T01:15:53Z" user="Jakesname" uid="12481081" lat="37.2312110" lon="-80.4277357"/>
 <node id="13984435337" visible="true" version="1" changeset="185010748" timestamp="2026-07-03T01:15:53Z" user="Jakesname" uid="12481081" lat="37.2313065" lon="-80.4276122">
  <tag k="entrance" v="yes"/>
 </node>
 <node id="13984435339" visible="true" version="1" changeset="185010748" timestamp="2026-07-03T01:15:53Z" user="Jakesname" uid="12481081" lat="37.2312304" lon="-80.4277106">
  <tag k="entrance" v="yes"/>
 </node>
 <way id="1174211880" visible="true" version="5" changeset="185010748" timestamp="2026-07-03T01:15:53Z" user="Jakesname" uid="12481081">
  <nd ref="10910651849"/>
  <nd ref="10910651850"/>
  <nd ref="10910651851"/>
  <nd ref="10910651852"/>
  <nd ref="10910651853"/>
  <nd ref="10910651854"/>
  <nd ref="10910651855"/>
  <nd ref="10910651856"/>
  <nd ref="10910651857"/>
  <nd ref="10910651858"/>
  <nd ref="10910651859"/>
  <nd ref="10910651860"/>
  <nd ref="10910651861"/>
  <nd ref="10910651862"/>
  <nd ref="10910651863"/>
  <nd ref="10910651864"/>
  <nd ref="12206940081"/>
  <nd ref="10910651865"/>
  <nd ref="10910651869"/>
  <nd ref="10910651870"/>
  <nd ref="10910651871"/>
  <nd ref="10910651872"/>
  <nd ref="12206940090"/>
  <nd ref="10910651873"/>
  <nd ref="10910651874"/>
  <nd ref="10910651875"/>
  <nd ref="10910651876"/>
  <nd ref="10910651877"/>
  <nd ref="12206940083"/>
  <nd ref="10910651880"/>
  <nd ref="10910651881"/>
  <nd ref="10910651882"/>
  <nd ref="10910651883"/>
  <nd ref="10910651884"/>
  <nd ref="10910651885"/>
  <nd ref="10910651886"/>
  <nd ref="10910651887"/>
  <nd ref="10910651888"/>
  <nd ref="10910651889"/>
  <nd ref="10910651891"/>
  <nd ref="10910651893"/>
  <nd ref="10910651894"/>
  <nd ref="12206975934"/>
  <nd ref="10910651895"/>
  <nd ref="12206975912"/>
  <nd ref="12206975911"/>
  <nd ref="13984435302"/>
  <nd ref="10910651896"/>
  <nd ref="10910651897"/>
  <nd ref="13984435335"/>
  <nd ref="13984435339"/>
  <nd ref="13984435337"/>
  <nd ref="10910651898"/>
  <nd ref="10910651899"/>
  <nd ref="13976342682"/>
  <nd ref="10910651849"/>
  <tag k="addr:city" v="Blacksburg"/>
  <tag k="addr:country" v="US"/>
  <tag k="addr:housenumber" v="727"/>
  <tag k="addr:postcode" v="24061"/>
  <tag k="addr:state" v="VA"/>
  <tag k="addr:street" v="Prices Fork Road"/>
  <tag k="building" v="university"/>
  <tag k="building:levels" v="4"/>
  <tag k="building:number" v="137"/>
  <tag k="name" v="Data and Decision Sciences Building"/>
  <tag k="operator" v="Virginia Tech"/>
  <tag k="short_name" v="DDS"/>
  <tag k="start_date" v="2023-08"/>
  <tag k="website" v="https://www.vt.edu/about/locations/buildings/data-and-decision-sciences.html"/>
 </way>
</osm>
